1 44268U 19029AK  20048.91667824 +.00027198 +00000-0 +41878-3 0  9990
2 44268 052.9949 028.7295 0001372 077.4847 064.5615 15.54022373001782
1 44268U 19029AK  20048.91667824  .00027198  00000-0  41878-3 0  9990
2 44268  52.9949  28.7295 0001372  77.4847  64.5615 15.54022373 40921
1 44268U 19029AK  20049.41667824  .01490722  00000-0  20590-1 0  9990
2 44268  52.9947  26.3140 0000870  77.2405 343.9608 15.53900903 41001
1 44268U 19029AK  20049.66667824 -.00002014  00000-0 -23223-4 0  9990
2 44268  52.9954  25.1038 0000955  60.1627 320.5669 15.54169879 41034
1 44268U 19029AK  20050.16667824 -.00015018 +00000-0 -21996-3 0  9999
2 44268 052.9951 022.6873 0001145 055.9526 243.9064 15.54178851001866
1 44268U 19029AK  20050.91667824  .00103051  00000-0  15435-2 0  9995
2 44268  52.9952  19.0596 0001059  68.2310 110.3509 15.54167136 41231
1 44268U 19029AK  20051.25001157  .01131219  00000-0  15740-1 0  9990
2 44268  52.9949  17.4498 0001267  68.8146 175.8997 15.53999013 41282
1 44268U 19029AK  20051.50002315 -.00020765  00000-0 -30680-3 0  9991
2 44268  52.9948  16.2404 0001177  54.5272 149.8047 15.54206240 41323
1 44268U 19029AK  20051.58334491 -.00032287 +00000-0 -48175-3 0  9992
2 44268 052.9950 015.8368 0001119 058.1352 252.6573 15.54206590001775
1 44268U 19029AK  20051.83334491  .00325720  00000-0  47352-2 0  9990
2 44268  52.9951  14.6270 0001067  71.3570 199.0348 15.54120403 41378
1 44268U 19029AK  20051.91667824  .00009637  00000-0  15242-3 0  9998
2 44268  52.9954  14.2245 0001086  66.0429 310.8597 15.54195201 41382
1 44268U 19029AK  20052.58334491 +.00018487 +00000-0 +28539-3 0  9999
2 44268 052.9960 011.0016 0001144 057.4290 091.7073 15.54203897001780
1 44268U 19029AK  20052.91667824  .00013701  00000-0  21347-3 0  9999
2 44268  52.9963   9.3894 0001200  65.2625 149.9938 15.54207502 41540
1 44268U 19029AK  20053.58334491 -.00004372  00000-0 -58760-4 0  9990
2 44268  52.9964   6.1664 0001271  57.9249 289.5942 15.54214603 41646
1 44268U 19029AK  20053.91667824 +.00000337 +00000-0 +12279-4 0  9996
2 44268 052.9964 004.5546 0001288 063.0144 350.6334 15.54221142001789
1 44268U 19029AK  20054.58334491 -.00000064 +00000-0 +62328-5 0  9990
2 44268 052.9961 001.3315 0001294 059.9267 126.0024 15.54218563001775
1 44268U 19029AK  20054.91668981  .00005584  00000-0  91294-4 0  9995
2 44268  52.9963 359.7199 0001287  66.0028 186.1254 15.54225083 41853
1 44268U 19029AK  20055.19318258 +.00010263 +00000-0 +16155-3 0  9997
2 44268 052.9962 358.3853 0001138 067.8115 292.3014 15.54247106041017
1 44268U 19029AK  20055.91667824 -.00018412 +00000-0 -27076-3 0  9993
2 44268 052.9970 354.8849 0001423 063.6732 026.8343 15.54242981001824
1 44268U 19029AK  20056.25001157  .00111825  00000-0  16709-2 0  9992
2 44268  52.9972 353.2750 0001516  54.8945 101.7839 15.54192336 42063
1 44268U 19029AK  20056.58334491  .00016374  00000-0  25347-3 0  9990
2 44268  52.9973 351.6615 0001428  59.7573 163.0723 15.54225747 42111
1 44268U 19029AK  20056.91667824 +.00000718 +00000-0 +18004-4 0  9994
2 44268 052.9971 350.0503 0001479 063.0599 225.9201 15.54244734001762
1 44268U 19029AK  20057.50001157 -.00030497  00000-0 -45377-3 0  9992
2 44268  52.9965 347.2300 0001545  60.6629 254.1101 15.54251164 42256
1 44268U 19029AK  20057.91667824 -.00025372  00000-0 -37600-3 0  9992
2 44268  52.9965 345.2156 0001547  64.4853  62.9892 15.54255772 42325
1 44268U 19029AK  20058.83334491  .00082077  00000-0  12310-2 0  9998
2 44268  52.9968 340.7828 0001538  68.4061 151.0388 15.54235294 42461
1 44268U 19029AK  20058.91667824 +.00001915 +00000-0 +36014-4 0  9997
2 44268 052.9968 340.3804 0001575 064.8865 261.0967 15.54256054001775
1 44268U 19029AK  20059.58334491 +.00354897 +00000-0 +51304-2 0  9999
2 44268 052.9970 337.1562 0001452 066.3239 032.0361 15.54169713001789
1 44268U 19029AK  20059.83334491 +.00244106 +00000-0 +35756-2 0  9991
2 44268 052.9970 335.9476 0001577 069.2295 348.7528 15.54213601001824
1 44268U 19029AK  20059.91667824 +.00088529 +00000-0 +13257-2 0  9996
2 44268 052.9969 335.5452 0001669 064.4488 100.0785 15.54243933001831
1 44268U 19029AK  20060.25001157  .00099276  00000-0  14849-2 0  9995
2 44268  52.9964 333.9344 0001759  57.7721 172.9433 15.54222699 42685
1 44268U 19029AK  20060.58334491  .00192638  00000-0  28428-2 0  9995
2 44268  52.9964 332.3208 0001635  66.7072 230.2014 15.54203343 42733
1 44268U 19029AK  20060.91667824 -.00024564  00000-0 -36351-3 0  9990
2 44268  52.9964 330.7101 0001737  65.1210 297.9585 15.54273041 42787
1 44268U 19029AK  20061.58334491  .00166294  00000-0  24623-2 0  9998
2 44268  52.9963 327.4853 0001595  68.5462  66.9367 15.54213847 42893
1 44268U 19029AK  20061.88067148 +.00009055 +00000-0 +14321-3 0  9999
2 44268 052.9955 326.0488 0001733 060.2628 299.8553 15.54284285042056
1 44268U 19029AK  20061.91667824 -.00004028  00000-0 -53434-4 0  9996
2 44268  52.9965 325.8745 0001757  65.8591 135.8060 15.54271271 42947
1 44268U 19029AK  20062.58334491 +.00105816 +00000-0 +15803-2 0  9992
2 44268 052.9969 322.6495 0001713 068.8440 265.2378 15.54233772001776
1 44268U 19029AK  20062.91667824 -.00027891 +00000-0 -41366-3 0  9990
2 44268 052.9970 321.0390 0001870 065.6421 334.6333 15.54288174001771
1 44268U 19029AK  20063.58334491 +.00189139 +00000-0 +27905-2 0  9999
2 44268 052.9967 317.8140 0001753 069.3801 103.3311 15.54223332001778
1 44268U 19029AK  20063.91667824 -.00017471 +00000-0 -25610-3 0  9998
2 44268 052.9967 316.2037 0001932 066.4552 172.4586 15.54285828001775
1 44268U 19029AK  20064.58334491  .00153455  00000-0  22746-2 0  9990
2 44268  52.9965 312.9785 0001795  73.4073 297.9519 15.54236001 43357
1 44268U 19029AK  20064.91667824 -.00031641  00000-0 -47033-3 0  9997
2 44268  52.9967 311.3684 0001930  68.3246   9.2408 15.54295968 43411
1 44268U 19029AK  20065.25001157 +.00005628 +00000-0 +91743-4 0  9998
2 44268 052.9969 309.7566 0001930 065.6635 078.1221 15.54291708001774
1 44268U 19029AK  20065.50001157  .00343694  00000-0  49686-2 0  9991
2 44268  52.9972 308.5463 0001754  72.0224  31.4523 15.54209795 43500
1 44268U 19029AK  20065.83334491 -.00025787  00000-0 -38155-3 0  9999
2 44268  52.9973 306.9353 0002006  70.7138  98.9711 15.54306445 43553
1 44268U 19029AK  20066.58334491  .00242877  00000-0  35551-2 0  9997
2 44268  52.9971 303.3076 0001905  74.4588 334.2647 15.54237405 43677
1 44268U 19029AK  20066.91667824 -.00020649  00000-0 -30391-3 0  9994
2 44268  52.9967 301.6978 0002091  68.9133  46.0389 15.54304668 43728
1 44268U 19029AK  20067.58334491  .00103698  00000-0  15472-2 0  9995
2 44268  52.9962 298.4724 0001975  76.9252 170.5113 15.54269564 43820
1 44268U 19029AK  20067.83334491 -.00023325  00000-0 -34423-3 0  9991
2 44268  52.9962 297.2650 0002054  73.2390 133.8737 15.54313624 43862
1 44268U 19029AK  20067.91667824 +.00001792 +00000-0 +34122-4 0  9998
2 44268 052.9960 296.8625 0002091 071.5951 242.0813 15.54302438001775
1 44268U 19029AK  20068.41667824  .00170420  00000-0  25172-2 0  9992
2 44268  52.9964 294.4430 0001943  74.0536 159.0007 15.54264701 43957
1 44268U 19029AK  20068.75001157 -.00028352 +00000-0 -42004-3 0  9992
2 44268 052.9964 292.8316 0002080 076.1800 223.1102 15.54326735044004
1 44268U 19029AK  20069.33334491 +.00065025 +00000-0 +97633-3 0  9991
2 44268 052.9964 290.0104 0002062 074.0152 251.2287 15.54305320044098
1 44268U 19029AK  20069.91667824 -.00007416  00000-0 -10430-3 0  9996
2 44268  52.9959 287.1907 0002227  72.4689 278.7332 15.54316701 44180
1 44268U 19029AK  20069.91826873 +.00005543 +00000-0 +90357-4 0  9991
2 44268 052.9944 287.1819 0001933 079.6079 280.5148 15.54324936043309
1 44268U 19029AK  20070.25001157 -.00000044 +00000-0 +65329-5 0  9994
2 44268 052.9954 285.5778 0002129 073.8024 343.6552 15.54327912001783
1 44268U 19029AK  20070.75001157 -.00031163  00000-0 -46235-3 0  9999
2 44268  52.9955 283.1598 0002150  77.9123 258.9424 15.54338670 44312
1 44268U 19029AK  20070.91667824 +.00012249 +00000-0 +19090-3 0  9997
2 44268 052.9954 282.3546 0002201 074.3840 115.6144 15.54314832001774
1 44268U 19029AK  20073.91667824  .00026393  00000-0  40216-3 0  9999
2 44268  52.9959 267.8460 0002246  78.0734 348.4567 15.54327266 44816
1 44268U 19029AK  20074.25001157 +.00080944 +00000-0 +12099-2 0  9997
2 44268 052.9958 266.2324 0002103 081.2555 051.5629 15.54333640001789
1 44268U 19029AK  20074.58335648  .00697716  00000-0  96095-2 0  9997
2 44268  52.9966 264.6206 0001301  50.6344 148.7441 15.54644404 44910
1 44268U 19029AK  20074.91667824 +.00559196 +00000-0 +76363-2 0  9993
2 44268 052.9953 263.0298 0001175 055.7410 210.4509 15.54998454044963
1 44268U 19029AK  20075.91667824  .00751321  00000-0  97857-2 0  9999
2 44268  52.9942 258.1817 0001107  58.0194  51.3195 15.56007933 45120
1 44268U 19029AK  20076.25001157  .02231638  00000-0  27635-1 0  9990
2 44268  52.9950 256.5640 0000983  44.2508 133.6480 15.56147648 45176
1 44268U 19029AK  20076.58334491  .02361375  00000-0  29301-1 0  9990
2 44268  52.9947 254.9499 0001541  34.9300 211.9231 15.56443726 45229
1 44268U 19029AK  20076.86032308 +.00257119 +00000-0 +34657-2 0  9992
2 44268 052.9944 253.5837 0000995 068.2423 291.8693 15.56429876044380
1 44268U 19029AK  20076.91667824  .00696913  00000-0  86754-2 0  9999
2 44268  52.9958 253.3314 0001101  66.9777 249.2115 15.57029583 45277
1 44268U 19029AK  20077.50207939  .00273870  00000-0  35936-2 0  9991
2 44268  52.9942 250.4662 0001447  79.6437 280.4736 15.57093744 45367
1 44268U 19029AK  20077.91667824  .00496053  00000-0  62087-2 0  9996
2 44268  52.9952 248.4529 0001296  59.5279 106.9779 15.57581754 45430
1 44268U 19029AK  20078.25001157  .00212088  00000-0  27492-2 0  9990
2 44268  52.9956 246.8308 0001240  70.4419 166.3710 15.57643887 45484
1 44268U 19029AK  20078.58334491  .00025701  00000-0  34611-3 0  9992
2 44268  52.9955 245.2111 0001330  75.2867 231.8293 15.57700617 45533
1 44268U 19029AK  20079.41668981  .00294570  00000-0  37768-2 0  9996
2 44268  52.9949 241.1598 0001308  75.3968 227.6155 15.57640386 45668
